IRIDIUM 106             
1 41917U 17003A   25047.43680531  .00000530  00000+0  18198-3 0  9998
2 41917  86.3952 291.5112 0002427  80.1174 280.0296 14.34226451423585
IRIDIUM 103             
1 41918U 17003B   25047.63345820  .00000491  00000+0  16807-3 0  9991
2 41918  86.3951 291.3301 0002483  97.4794 262.6684 14.34219984423630
IRIDIUM 109             
1 41919U 17003C   25047.57002542  .00000060  00000+0  14464-4 0  9996
2 41919  86.3953 291.4080 0001975  91.8635 268.2787 14.34217631423593
IRIDIUM 102             
1 41920U 17003D   25047.60807108  .00000469  00000+0  16050-3 0  9998
2 41920  86.3965 291.3223 0002007  92.2756 267.8670 14.34214650423686
IRIDIUM 105             
1 41921U 17003E   25047.57881668  .00000248  00000+0  81624-4 0  9993
2 41921  86.3921 259.7504 0002183  89.6114 270.5332 14.34217077425530
IRIDIUM 104             
1 41922U 17003F   25047.62076604  .00000009  00000+0 -39757-5 0  9993
2 41922  86.3952 291.3555 0001804 101.5286 258.6112 14.34217396423676
IRIDIUM 114             
1 41923U 17003G   25047.62710924  .00000143  00000+0  44099-4 0  9996
2 41923  86.3953 291.3383 0002254  90.9517 269.1937 14.34218152423656
IRIDIUM 108             
1 41924U 17003H   25047.58563026 -.00000007  00000+0 -94593-5 0  9997
2 41924  86.3919 259.6563 0002113  81.6994 278.4441 14.34216861425500
